NORAD_CAT_ID,OBJECT_NAME,OBJECT_TYPE,EPOCH,MEAN_MOTION,ECCENTRICITY,INCLINATION,RA_OF_ASC_NODE,ARG_OF_PERICENTER,MEAN_ANOMALY,BSTAR,MEAN_MOTION_DOT,MEAN_MOTION_DDOT,TLE_LINE0,TLE_LINE1,TLE_LINE2,SEMIMAJOR_AXIS,PERIOD,APOGEE,PERIGEE,DECAYED
54811.0,STARLINK-5424,PAYLOAD,2024-06-09 00:51:31,15.08834221,0.0001094,53.2183,11.1928,99.2389,260.8727,0.00017233,2.455e-05,0.0,0 STARLINK-5424,1 54811U 22175BF  24161.03578053  .00002455  00000-0  17233-3 0  9996,2 54811  53.2183  11.1928 0001094  99.2389 260.8727 15.08834221 81622,6917.898,95.438,540.52,539.006,0.0
54811.0,STARLINK-5424,PAYLOAD,2024-06-09 21:31:32,15.0884136,0.0001315,53.2184,7.3281,83.9036,276.2106,6.0653e-05,6.78e-06,0.0,0 STARLINK-5424,1 54811U 22175BF  24161.89690543  .00000678  00000-0  60653-4 0  9999,2 54811  53.2184   7.3281 0001315  83.9036 276.2106 15.08841360 83915,6917.876,95.437,540.651,538.832,0.0
54811.0,STARLINK-5424,PAYLOAD,2024-06-10 07:03:50,15.08849667,0.0001236,53.2197,5.5433,91.6687,268.4447,7.658e-05,9.31e-06,0.0,0 STARLINK-5424,1 54811U 22175BF  24162.29433882  .00000931  00000-0  76580-4 0  9993,2 54811  53.2197   5.5433 0001236  91.6687 268.4447 15.08849667 81814,6917.851,95.437,540.571,538.861,0.0
54811.0,STARLINK-5424,PAYLOAD,2024-06-10 19:46:48,15.089546,0.0002841,53.2205,3.1619,174.7642,185.338,0.00070503,0.00010986,0.0,0 STARLINK-5424,1 54811U 22175BF  24162.82417598  .00010986  00000-0  70503-3 0  9997,2 54811  53.2205   3.1619 0002841 174.7642 185.3380 15.08954600 81896,6917.53,95.43,541.36,537.43,0.0
54811.0,STARLINK-5424,PAYLOAD,2024-06-11 02:08:28,15.08852781,0.0001109,53.2203,1.9744,106.6085,253.5029,0.00016582,2.353e-05,0.0,0 STARLINK-5424,1 54811U 22175BF  24163.08921416  .00002353  00000-0  16582-3 0  9991,2 54811  53.2203   1.9744 0001109 106.6085 253.5029 15.08852781 81930,6917.841,95.437,540.474,538.939,0.0
54811.0,STARLINK-5424,PAYLOAD,2024-06-11 06:54:37,15.08845247,0.0001147,53.2205,1.0816,103.4632,256.6488,0.00014738,2.059e-05,0.0,0 STARLINK-5424,1 54811U 22175BF  24163.28793937  .00002059  00000-0  14738-3 0  9992,2 54811  53.2205   1.0816 0001147 103.4632 256.6488 15.08845247 84124,6917.864,95.437,540.523,538.936,0.0
54811.0,STARLINK-5424,PAYLOAD,2024-06-11 22:48:29,15.0886294,9.1e-05,53.2196,358.1084,107.0907,253.0185,-0.0002031,-3.521e-05,0.0,0 STARLINK-5424,1 54811U 22175BF  24163.95033765 -.00003521  00000-0 -20310-3 0  9992,2 54811  53.2196 358.1084 0000910 107.0907 253.0185 15.08862940 82063,6917.81,95.436,540.305,539.046,0.0
54811.0,STARLINK-5424,PAYLOAD,2024-06-12 17:53:07,15.08834103,0.0001156,53.2183,354.5379,99.9399,260.1723,4.3331e-05,4.02e-06,0.0,0 STARLINK-5424,1 54811U 22175BF  24164.74523029  .00000402  00000-0  43331-4 0  9999,2 54811  53.2183 354.5379 0001156  99.9399 260.1723 15.08834103 82183,6917.898,95.438,540.563,538.964,0.0
54811.0,STARLINK-5424,PAYLOAD,2024-06-12 22:39:17,15.0884103,0.0001196,53.2189,353.6471,106.8921,253.2202,-0.00010462,-1.953e-05,0.0,0 STARLINK-5424,1 54811U 22175BF  24164.94395028 -.00001953  00000-0 -10462-3 0  9999,2 54811  53.2189 353.6471 0001196 106.8921 253.2202 15.08841030 84370,6917.877,95.437,540.57,538.915,0.0
54811.0,STARLINK-5424,PAYLOAD,2024-06-13 22:30:03,15.08846156,0.0001229,53.2181,349.1893,80.1512,279.9619,5.8631e-05,6.46e-06,0.0,0 STARLINK-5424,1 54811U 22175BF  24165.93754461  .00000646  00000-0  58631-4 0  9996,2 54811  53.2181 349.1893 0001229  80.1512 279.9619 15.08846156 84525,6917.862,95.437,540.577,538.876,0.0
54811.0,STARLINK-5424,PAYLOAD,2024-06-14 11:13:08,15.08845785,0.000196,53.2176,346.8118,84.7175,275.4041,0.00020916,3.043e-05,0.0,0 STARLINK-5424,1 54811U 22175BF  24166.46746371  .00003043  00000-0  20916-3 0  9994,2 54811  53.2176 346.8118 0001960  84.7175 275.4041 15.08845785 84606,6917.863,95.437,541.084,538.372,0.0
54811.0,STARLINK-5424,PAYLOAD,2024-06-14 19:10:05,15.08833943,0.0001177,53.2183,345.3262,95.1338,264.9789,8.5322e-05,1.07e-05,0.0,0 STARLINK-5424,1 54811U 22175BF  24166.79867444  .00001070  00000-0  85322-4 0  9996,2 54811  53.2183 345.3262 0001177  95.1338 264.9789 15.08833943 84655,6917.899,95.438,540.578,538.95,0.0
54811.0,STARLINK-5424,PAYLOAD,2024-06-15 04:42:23,15.08848444,0.0001305,53.2198,343.541,91.8594,268.2547,0.00017327,2.471e-05,0.0,0 STARLINK-5424,1 54811U 22175BF  24167.19610284  .00002471  00000-0  17327-3 0  9994,2 54811  53.2198 343.5410 0001305  91.8594 268.2547 15.08848444 84714,6917.855,95.437,540.622,538.817,0.0
54811.0,STARLINK-5424,PAYLOAD,2024-06-15 22:11:38,15.08843751,0.0001412,53.2183,340.2686,85.3022,274.8132,3.399e-05,2.53e-06,0.0,0 STARLINK-5424,1 54811U 22175BF  24167.92474997  .00000253  00000-0  33990-4 0  9995,2 54811  53.2183 340.2686 0001412  85.3022 274.8132 15.08843751 84821,6917.869,95.437,540.711,538.757,0.0
54811.0,STARLINK-5424,PAYLOAD,2024-06-16 04:33:10,15.08846755,0.0001495,53.2176,339.0802,88.6277,271.4886,6.2766e-05,7.11e-06,0.0,0 STARLINK-5424,1 54811U 22175BF  24168.18970430  .00000711  00000-0  62766-4 0  9999,2 54811  53.2176 339.0802 0001495  88.6277 271.4886 15.08846755 84868,6917.86,95.437,540.759,538.691,0.0
54811.0,STARLINK-5424,PAYLOAD,2024-06-16 18:51:39,15.08840206,0.000126,53.2191,336.4006,80.4239,279.6896,3.212e-05,2.23e-06,0.0,0 STARLINK-5424,1 54811U 22175BF  24168.78587275  .00000223  00000-0  32120-4 0  9995,2 54811  53.2191 336.4006 0001260  80.4239 279.6896 15.08840206 84956,6917.88,95.438,540.616,538.873,0.0
54811.0,STARLINK-5424,PAYLOAD,2024-06-17 18:42:26,15.08868513,0.0001166,53.2191,331.9413,89.1518,270.9608,0.00082696,0.00012908,0.0,0 STARLINK-5424,1 54811U 22175BF  24169.77947713  .00012908  00000-0  82696-3 0  9997,2 54811  53.2191 331.9413 0001166  89.1518 270.9608 15.08868513 82942,6917.793,95.436,540.465,538.852,0.0
54811.0,STARLINK-5424,PAYLOAD,2024-06-18 10:36:18,15.08869164,0.0001742,53.2199,328.9678,94.0039,266.1153,0.00071188,0.00011069,0.0,0 STARLINK-5424,1 54811U 22175BF  24170.44188068  .00011069  00000-0  71188-3 0  9994,2 54811  53.2199 328.9678 0001742  94.0039 266.1153 15.08869164 83049,6917.791,95.436,540.861,538.451,0.0
54811.0,STARLINK-5424,PAYLOAD,2024-06-18 15:22:27,15.08871344,0.0001762,53.2196,328.0723,104.3188,255.8,0.00089478,0.00013993,0.0,0 STARLINK-5424,1 54811U 22175BF  24170.64059368  .00013993  00000-0  89478-3 0  9995,2 54811  53.2196 328.0723 0001762 104.3188 255.8000 15.08871344 85232,6917.785,95.436,540.868,538.431,0.0
54811.0,STARLINK-5424,PAYLOAD,2024-06-19 04:05:32,15.08879393,0.00014,53.2192,325.6991,80.8342,279.2808,0.00080918,0.00012627,0.0,0 STARLINK-5424,1 54811U 22175BF  24171.17050997  .00012627  00000-0  80918-3 0  9996,2 54811  53.2192 325.6991 0001400  80.8342 279.2808 15.08879393 83154,6917.76,95.435,540.593,538.656,0.0
54811.0,STARLINK-5424,PAYLOAD,2024-06-19 13:37:52,15.08859544,0.0001301,53.2191,323.9142,93.8465,266.2676,0.00077054,0.00012003,0.0,0 STARLINK-5424,1 54811U 22175BF  24171.56796377  .00012003  00000-0  77054-3 0  9993,2 54811  53.2191 323.9142 0001301  93.8465 266.2676 15.08859544 83214,6917.821,95.436,540.586,538.786,0.0
54811.0,STARLINK-5424,PAYLOAD,2024-06-19 16:48:38,15.08861805,0.000124,53.2189,323.3199,92.4376,267.6758,0.00076209,0.00011869,0.0,0 STARLINK-5424,1 54811U 22175BF  24171.70044289  .00011869  00000-0  76209-3 0  9997,2 54811  53.2189 323.3199 0001240  92.4376 267.6758 15.08861805 85395,6917.814,95.436,540.537,538.821,0.0
54811.0,STARLINK-5424,PAYLOAD,2024-06-20 13:28:38,15.08866405,0.0001435,53.2199,319.4541,98.9175,261.198,0.00079561,0.00012406,0.0,0 STARLINK-5424,1 54811U 22175BF  24172.56156088  .00012406  00000-0  79561-3 0  9995,2 54811  53.2199 319.4541 0001435  98.9175 261.1980 15.08866405 85529,6917.8,95.436,540.657,538.672,0.0
54811.0,STARLINK-5424,PAYLOAD,2024-06-20 19:50:10,15.08877685,0.0001656,53.2182,318.2664,105.3999,254.7176,0.00069686,0.00010831,0.0,0 STARLINK-5424,1 54811U 22175BF  24172.82651584  .00010831  00000-0  69686-3 0  9992,2 54811  53.2182 318.2664 0001656 105.3999 254.7176 15.08877685 83408,6917.765,95.435,540.776,538.485,0.0
54811.0,STARLINK-5424,PAYLOAD,2024-06-21 13:19:26,15.088613,0.000122,53.2182,314.9938,98.3045,261.8086,0.00085613,0.00013371,0.0,0 STARLINK-5424,1 54811U 22175BF  24173.55516490  .00013371  00000-0  85613-3 0  9999,2 54811  53.2182 314.9938 0001220  98.3045 261.8086 15.08861300 83513,6917.815,95.436,540.524,538.836,0.0
54811.0,STARLINK-5424,PAYLOAD,2024-06-21 14:54:49,15.08861828,0.0001161,53.2181,314.6965,96.6654,263.447,0.000846,0.0001321,0.0,0 STARLINK-5424,1 54811U 22175BF  24173.62140519  .00013210  00000-0  84600-3 0  9999,2 54811  53.2181 314.6965 0001161  96.6654 263.4470 15.08861828 85680,6917.814,95.436,540.482,538.876,0.0
54811.0,STARLINK-5424,PAYLOAD,2024-06-22 13:10:13,15.08864239,0.0001084,53.217,310.5317,77.3225,282.7889,0.00080183,0.00012505,0.0,0 STARLINK-5424,1 54811U 22175BF  24174.54876889  .00012505  00000-0  80183-3 0  9995,2 54811  53.2170 310.5317 0001084  77.3225 282.7889 15.08864239 83661,6917.806,95.436,540.421,538.921,0.0
54811.0,STARLINK-5424,PAYLOAD,2024-06-22 14:45:36,15.08864722,0.0001086,53.2172,310.2344,77.0767,283.0347,0.00079093,0.00012331,0.0,0 STARLINK-5424,1 54811U 22175BF  24174.61500914  .00012331  00000-0  79093-3 0  9991,2 54811  53.2172 310.2344 0001086  77.0767 283.0347 15.08864722 85831,6917.805,95.436,540.421,538.919,0.0
54811.0,STARLINK-5424,PAYLOAD,2024-06-23 13:01:00,15.08865819,0.0001182,53.2177,306.0708,91.0019,269.1109,0.0008802,0.00013758,0.0,0 STARLINK-5424,1 54811U 22175BF  24175.54236589  .00013758  00000-0  88020-3 0  9992,2 54811  53.2177 306.0708 0001182  91.0019 269.1109 15.08865819 83811,6917.801,95.436,540.484,538.849,0.0
54811.0,STARLINK-5424,PAYLOAD,2024-06-23 14:36:23,15.08866809,0.0001168,53.2183,305.774,90.6685,269.4441,0.00087248,0.00013635,0.0,0 STARLINK-5424,1 54811U 22175BF  24175.60860565  .00013635  00000-0  87248-3 0  9991,2 54811  53.2183 305.7740 0001168  90.6685 269.4441 15.08866809 85980,6917.798,95.436,540.471,538.855,0.0
